STARLINK-6318           
1 56530U 23065AD  26060.84962083 -.00000736  00000+0 -39435-4 0  9994
2 56530  43.0039 227.0584 0001347 272.3913  87.6775 15.02529494155743
STARLINK-6280           
1 56531U 23065AE  26060.92450403  .00027949  00000+0  20640-2 0  9991
2 56531  43.0027 239.7727 0002220 244.9198 115.1414 15.02751162155602
STARLINK-6319           
1 56532U 23065AF  26060.53575952  .00011774  00000+0  88311-3 0  9995
2 56532  43.0035 242.0208 0000891 154.0416 206.0472 15.02624246155548
STARLINK-6310           
1 56533U 23065AG  26060.51905293  .00012111  00000+0  90745-3 0  9999
2 56533  43.0035 241.8952 0003200 308.3685  51.6870 15.02643703155546
STARLINK-6308           
1 56534U 23065AH  26061.16668981  .00003042  00000+0  22016-3 0  9991
2 56534  43.0008 238.5171 0000682 258.0087 309.8355 15.05856130  5667
STARLINK-6309           
1 56535U 23065AJ  26060.91755252  .00000112  00000+0  23333-4 0  9991
2 56535  43.0034 265.7595 0001211 262.6063  97.4642 15.02534971155302
STARLINK-6312           
1 56536U 23065AK  26060.97737236 -.00000002  00000+0  14957-4 0  9991
2 56536  43.0038 265.3473 0001137 269.5167  90.5545 15.02532701155312
STARLINK-6311           
1 56537U 23065AL  26060.91422338  .00000345  00000+0  40640-4 0  9997
2 56537  43.0026 265.7360 0001152 270.3809  89.6901 15.02535269155305
STARLINK-6314           
1 56538U 23065AM  26061.16668981  .00001117  00000+0  91605-4 0  9997
2 56538  43.0004 238.3098 0001731 253.7155  38.1998 15.05121506  5765
STARLINK-6135           
1 56539U 23065AN  26060.90422395  .00000431  00000+0  46993-4 0  9994
2 56539  43.0031 265.6568 0001252 262.2553  97.8147 15.02533850155306
STARLINK-6136           
1 56540U 23065AP  26060.90090188  .00000386  00000+0  43617-4 0  9996
2 56540  43.0023 265.6374 0001197 264.5172  95.5534 15.02534329155301
STARLINK-6249           
1 56541U 23065AQ  26060.83506923  .00053266  00000+0  38840-2 0  9993
2 56541  43.0011 266.0009 0002110 270.2400  89.8201 15.02963408155292
STARLINK-6266           
1 56542U 23065AR  26060.84108638  .00000002  00000+0  15202-4 0  9995
2 56542  43.0026 266.0462 0000976 252.4110 107.6625 15.02534986155294
STARLINK-6226           
1 56544U 23065AT  26060.92581667  .00057242  00000+0  41669-2 0  9995
2 56544  43.0037 264.9735 0000693 273.0705  87.0058 15.02995841155318
STARLINK-6086           
1 56545U 23065AU  26058.96288426  .00020484  00000+0  15199-2 0  9991
2 56545  43.0031 276.0334 0000332 118.1897 241.8979 15.02712939155017
STARLINK-6187           
1 56546U 23065AV  26059.70148201  .00065238  00000+0  47313-2 0  9990
2 56546  43.0046 272.1151 0001481 230.5529 129.5183 15.03076627155124
