[{"OBJECT_NAME":"STARLINK-6318","OBJECT_ID":"2023-065AD","EPOCH":"2026-03-01T20:23:27.239712","MEAN_MOTION":15.02529494,"ECCENTRICITY":0.0001347,"INCLINATION":43.0039,"RA_OF_ASC_NODE":227.0584,"ARG_OF_PERICENTER":272.3913,"MEAN_ANOMALY":87.6775,"EPHEMERIS_TYPE":0,"CLASSIFICATION_TYPE":"U","NORAD_CAT_ID":56530,"ELEMENT_SET_NO":999,"REV_AT_EPOCH":15574,"BSTAR":-3.9435e-5,"MEAN_MOTION_DOT":-7.36e-6,"MEAN_MOTION_DDOT":0},{"OBJECT_NAME":"STARLINK-6280","OBJECT_ID":"2023-065AE","EPOCH":"2026-03-01T22:11:17.148192","MEAN_MOTION":15.02751162,"ECCENTRICITY":0.000222,"INCLINATION":43.0027,"RA_OF_ASC_NODE":239.7727,"ARG_OF_PERICENTER":244.9198,"MEAN_ANOMALY":115.1414,"EPHEMERIS_TYPE":0,"CLASSIFICATION_TYPE":"U","NORAD_CAT_ID":56531,"ELEMENT_SET_NO":999,"REV_AT_EPOCH":15560,"BSTAR":0.002064,"MEAN_MOTION_DOT":0.00027949,"MEAN_MOTION_DDOT":0},{"OBJECT_NAME":"STARLINK-6319","OBJECT_ID":"2023-065AF","EPOCH":"2026-03-01T12:51:29.622528","MEAN_MOTION":15.02624246,"ECCENTRICITY":8.919e-5,"INCLINATION":43.0035,"RA_OF_ASC_NODE":242.0208,"ARG_OF_PERICENTER":154.0416,"MEAN_ANOMALY":206.0472,"EPHEMERIS_TYPE":0,"CLASSIFICATION_TYPE":"U","NORAD_CAT_ID":56532,"ELEMENT_SET_NO":999,"REV_AT_EPOCH":15554,"BSTAR":0.00088311408,"MEAN_MOTION_DOT":0.00011774,"MEAN_MOTION_DDOT":0},{"OBJECT_NAME":"STARLINK-6310","OBJECT_ID":"2023-065AG","EPOCH":"2026-03-01T12:27:26.173152","MEAN_MOTION":15.02643703,"ECCENTRICITY":0.00032004,"INCLINATION":43.0035,"RA_OF_ASC_NODE":241.8952,"ARG_OF_PERICENTER":308.3685,"MEAN_ANOMALY":51.687,"EPHEMERIS_TYPE":0,"CLASSIFICATION_TYPE":"U","NORAD_CAT_ID":56533,"ELEMENT_SET_NO":999,"REV_AT_EPOCH":15554,"BSTAR":0.00090744797,"MEAN_MOTION_DOT":0.00012111,"MEAN_MOTION_DDOT":0},{"OBJECT_NAME":"STARLINK-6308","OBJECT_ID":"2023-065AH","EPOCH":"2026-03-02T04:00:01.999584","MEAN_MOTION":15.0585613,"ECCENTRICITY":6.82e-5,"INCLINATION":43.0008,"RA_OF_ASC_NODE":238.5171,"ARG_OF_PERICENTER":258.0087,"MEAN_ANOMALY":309.8355,"EPHEMERIS_TYPE":0,"CLASSIFICATION_TYPE":"U","NORAD_CAT_ID":56534,"ELEMENT_SET_NO":999,"REV_AT_EPOCH":566,"BSTAR":0.00022016,"MEAN_MOTION_DOT":3.042e-5,"MEAN_MOTION_DDOT":0},{"OBJECT_NAME":"STARLINK-6309","OBJECT_ID":"2023-065AJ","EPOCH":"2026-03-01T22:01:16.537728","MEAN_MOTION":15.02534971,"ECCENTRICITY":0.0001211,"INCLINATION":43.0034,"RA_OF_ASC_NODE":265.7595,"ARG_OF_PERICENTER":262.6063,"MEAN_ANOMALY":97.4642,"EPHEMERIS_TYPE":0,"CLASSIFICATION_TYPE":"U","NORAD_CAT_ID":56535,"ELEMENT_SET_NO":999,"REV_AT_EPOCH":15530,"BSTAR":2.3333e-5,"MEAN_MOTION_DOT":1.12e-6,"MEAN_MOTION_DDOT":0},{"OBJECT_NAME":"STARLINK-6312","OBJECT_ID":"2023-065AK","EPOCH":"2026-03-01T23:27:24.971904","MEAN_MOTION":15.02532701,"ECCENTRICITY":0.0001137,"INCLINATION":43.0038,"RA_OF_ASC_NODE":265.3473,"ARG_OF_PERICENTER":269.5167,"MEAN_ANOMALY":90.5545,"EPHEMERIS_TYPE":0,"CLASSIFICATION_TYPE":"U","NORAD_CAT_ID":56536,"ELEMENT_SET_NO":999,"REV_AT_EPOCH":15531,"BSTAR":1.4957e-5,"MEAN_MOTION_DOT":-2.0e-8,"MEAN_MOTION_DDOT":0},{"OBJECT_NAME":"STARLINK-6311","OBJECT_ID":"2023-065AL","EPOCH":"2026-03-01T21:56:28.900032","MEAN_MOTION":15.02535269,"ECCENTRICITY":0.0001152,"INCLINATION":43.0026,"RA_OF_ASC_NODE":265.736,"ARG_OF_PERICENTER":270.3809,"MEAN_ANOMALY":89.6901,"EPHEMERIS_TYPE":0,"CLASSIFICATION_TYPE":"U","NORAD_CAT_ID":56537,"ELEMENT_SET_NO":999,"REV_AT_EPOCH":15530,"BSTAR":4.064e-5,"MEAN_MOTION_DOT":3.45e-6,"MEAN_MOTION_DDOT":0},{"OBJECT_NAME":"STARLINK-6314","OBJECT_ID":"2023-065AM","EPOCH":"2026-03-02T04:00:01.999584","MEAN_MOTION":15.05121506,"ECCENTRICITY":0.0001731,"INCLINATION":43.0004,"RA_OF_ASC_NODE":238.3098,"ARG_OF_PERICENTER":253.7155,"MEAN_ANOMALY":38.1998,"EPHEMERIS_TYPE":0,"CLASSIFICATION_TYPE":"U","NORAD_CAT_ID":56538,"ELEMENT_SET_NO":999,"REV_AT_EPOCH":576,"BSTAR":9.1605e-5,"MEAN_MOTION_DOT":1.117e-5,"MEAN_MOTION_DDOT":0},{"OBJECT_NAME":"STARLINK-6135","OBJECT_ID":"2023-065AN","EPOCH":"2026-03-01T21:42:04.949280","MEAN_MOTION":15.0253385,"ECCENTRICITY":0.0001252,"INCLINATION":43.0031,"RA_OF_ASC_NODE":265.6568,"ARG_OF_PERICENTER":262.2553,"MEAN_ANOMALY":97.8147,"EPHEMERIS_TYPE":0,"CLASSIFICATION_TYPE":"U","NORAD_CAT_ID":56539,"ELEMENT_SET_NO":999,"REV_AT_EPOCH":15530,"BSTAR":4.6993e-5,"MEAN_MOTION_DOT":4.31e-6,"MEAN_MOTION_DDOT":0},{"OBJECT_NAME":"STARLINK-6136","OBJECT_ID":"2023-065AP","EPOCH":"2026-03-01T21:37:17.922432","MEAN_MOTION":15.02534329,"ECCENTRICITY":0.0001197,"INCLINATION":43.0023,"RA_OF_ASC_NODE":265.6374,"ARG_OF_PERICENTER":264.5172,"MEAN_ANOMALY":95.5534,"EPHEMERIS_TYPE":0,"CLASSIFICATION_TYPE":"U","NORAD_CAT_ID":56540,"ELEMENT_SET_NO":999,"REV_AT_EPOCH":15530,"BSTAR":4.3617e-5,"MEAN_MOTION_DOT":3.86e-6,"MEAN_MOTION_DDOT":0},{"OBJECT_NAME":"STARLINK-6249","OBJECT_ID":"2023-065AQ","EPOCH":"2026-03-01T20:02:29.981472","MEAN_MOTION":15.02963408,"ECCENTRICITY":0.00021104,"INCLINATION":43.0011,"RA_OF_ASC_NODE":266.0009,"ARG_OF_PERICENTER":270.24,"MEAN_ANOMALY":89.8201,"EPHEMERIS_TYPE":0,"CLASSIFICATION_TYPE":"U","NORAD_CAT_ID":56541,"ELEMENT_SET_NO":999,"REV_AT_EPOCH":15529,"BSTAR":0.0038839605,"MEAN_MOTION_DOT":0.00053266,"MEAN_MOTION_DDOT":0},{"OBJECT_NAME":"STARLINK-6266","OBJECT_ID":"2023-065AR","EPOCH":"2026-03-01T20:11:09.863232","MEAN_MOTION":15.02534986,"ECCENTRICITY":9.768e-5,"INCLINATION":43.0026,"RA_OF_ASC_NODE":266.0462,"ARG_OF_PERICENTER":252.411,"MEAN_ANOMALY":107.6625,"EPHEMERIS_TYPE":0,"CLASSIFICATION_TYPE":"U","NORAD_CAT_ID":56542,"ELEMENT_SET_NO":999,"REV_AT_EPOCH":15529,"BSTAR":1.520186e-5,"MEAN_MOTION_DOT":2.0e-8,"MEAN_MOTION_DDOT":0},{"OBJECT_NAME":"STARLINK-6226","OBJECT_ID":"2023-065AT","EPOCH":"2026-03-01T22:13:10.560288","MEAN_MOTION":15.02995841,"ECCENTRICITY":6.93e-5,"INCLINATION":43.0037,"RA_OF_ASC_NODE":264.9735,"ARG_OF_PERICENTER":273.0705,"MEAN_ANOMALY":87.0058,"EPHEMERIS_TYPE":0,"CLASSIFICATION_TYPE":"U","NORAD_CAT_ID":56544,"ELEMENT_SET_NO":999,"REV_AT_EPOCH":15531,"BSTAR":0.0041669,"MEAN_MOTION_DOT":0.00057242,"MEAN_MOTION_DDOT":0},{"OBJECT_NAME":"STARLINK-6086","OBJECT_ID":"2023-065AU","EPOCH":"2026-02-27T23:06:33.200064","MEAN_MOTION":15.02712939,"ECCENTRICITY":3.328e-5,"INCLINATION":43.0031,"RA_OF_ASC_NODE":276.0334,"ARG_OF_PERICENTER":118.1897,"MEAN_ANOMALY":241.8979,"EPHEMERIS_TYPE":0,"CLASSIFICATION_TYPE":"U","NORAD_CAT_ID":56545,"ELEMENT_SET_NO":999,"REV_AT_EPOCH":15501,"BSTAR":0.0015199173,"MEAN_MOTION_DOT":0.00020484,"MEAN_MOTION_DDOT":0},{"OBJECT_NAME":"STARLINK-6187","OBJECT_ID":"2023-065AV","EPOCH":"2026-02-28T16:50:08.045664","MEAN_MOTION":15.03076627,"ECCENTRICITY":0.00014816,"INCLINATION":43.0046,"RA_OF_ASC_NODE":272.1151,"ARG_OF_PERICENTER":230.5529,"MEAN_ANOMALY":129.5183,"EPHEMERIS_TYPE":0,"CLASSIFICATION_TYPE":"U","NORAD_CAT_ID":56546,"ELEMENT_SET_NO":999,"REV_AT_EPOCH":15512,"BSTAR":0.0047313149,"MEAN_MOTION_DOT":0.00065238,"MEAN_MOTION_DDOT":0}]
